<?xml version="1.0" encoding="UTF-8"?>
<ndm xmlns:xsi="http://www.w3.org/2001/XMLSchema-instance" xsi:noNamespaceSchemaLocation="https://sanaregistry.org/r/ndmxml_unqualified/ndmxml-2.0.0-master-2.0.xsd">
<omm id="CCSDS_OMM_VERS" version="2.0">
<header><CREATION_DATE/><ORIGINATOR/></header><body><segment><metadata><OBJECT_NAME>IRIDIUM 159</OBJECT_NAME><OBJECT_ID>2018-061K</OBJECT_ID><CENTER_NAME>EARTH</CENTER_NAME><REF_FRAME>TEME</REF_FRAME><TIME_SYSTEM>UTC</TIME_SYSTEM><MEAN_ELEMENT_THEORY>SGP4</MEAN_ELEMENT_THEORY></metadata><data><meanElements><EPOCH>2025-03-22T12:35:46.481856</EPOCH><MEAN_MOTION>14.34216635</MEAN_MOTION><ECCENTRICITY>.0002232</ECCENTRICITY><INCLINATION>86.3933</INCLINATION><RA_OF_ASC_NODE>245.3959</RA_OF_ASC_NODE><ARG_OF_PERICENTER>97.2398</ARG_OF_PERICENTER><MEAN_ANOMALY>262.9052</MEAN_ANOMALY></meanElements><tleParameters><EPHEMERIS_TYPE>0</EPHEMERIS_TYPE><CLASSIFICATION_TYPE>U</CLASSIFICATION_TYPE><NORAD_CAT_ID>43578</NORAD_CAT_ID><ELEMENT_SET_NO>999</ELEMENT_SET_NO><REV_AT_EPOCH>34864</REV_AT_EPOCH><BSTAR>.98785E-4</BSTAR><MEAN_MOTION_DOT>.296E-5</MEAN_MOTION_DOT><MEAN_MOTION_DDOT>0</MEAN_MOTION_DDOT></tleParameters></data></segment></body></omm>
<omm id="CCSDS_OMM_VERS" version="2.0">
<header><CREATION_DATE/><ORIGINATOR/></header><body><segment><metadata><OBJECT_NAME>IRIDIUM 180</OBJECT_NAME><OBJECT_ID>2019-002A</OBJECT_ID><CENTER_NAME>EARTH</CENTER_NAME><REF_FRAME>TEME</REF_FRAME><TIME_SYSTEM>UTC</TIME_SYSTEM><MEAN_ELEMENT_THEORY>SGP4</MEAN_ELEMENT_THEORY></metadata><data><meanElements><EPOCH>2025-03-22T12:35:02.831712</EPOCH><MEAN_MOTION>14.34216550</MEAN_MOTION><ECCENTRICITY>.0002216</ECCENTRICITY><INCLINATION>86.4047</INCLINATION><RA_OF_ASC_NODE>182.3517</RA_OF_ASC_NODE><ARG_OF_PERICENTER>94.3276</ARG_OF_PERICENTER><MEAN_ANOMALY>265.8173</MEAN_ANOMALY></meanElements><tleParameters><EPHEMERIS_TYPE>0</EPHEMERIS_TYPE><CLASSIFICATION_TYPE>U</CLASSIFICATION_TYPE><NORAD_CAT_ID>43922</NORAD_CAT_ID><ELEMENT_SET_NO>999</ELEMENT_SET_NO><REV_AT_EPOCH>32429</REV_AT_EPOCH><BSTAR>.49291E-3</BSTAR><MEAN_MOTION_DOT>.14E-4</MEAN_MOTION_DOT><MEAN_MOTION_DDOT>0</MEAN_MOTION_DDOT></tleParameters></data></segment></body></omm>
<omm id="CCSDS_OMM_VERS" version="2.0">
<header><CREATION_DATE/><ORIGINATOR/></header><body><segment><metadata><OBJECT_NAME>IRIDIUM 176</OBJECT_NAME><OBJECT_ID>2019-002B</OBJECT_ID><CENTER_NAME>EARTH</CENTER_NAME><REF_FRAME>TEME</REF_FRAME><TIME_SYSTEM>UTC</TIME_SYSTEM><MEAN_ELEMENT_THEORY>SGP4</MEAN_ELEMENT_THEORY></metadata><data><meanElements><EPOCH>2025-03-22T12:19:33.924576</EPOCH><MEAN_MOTION>14.72234212</MEAN_MOTION><ECCENTRICITY>.0002932</ECCENTRICITY><INCLINATION>86.6166</INCLINATION><RA_OF_ASC_NODE>182.3565</RA_OF_ASC_NODE><ARG_OF_PERICENTER>91.0411</ARG_OF_PERICENTER><MEAN_ANOMALY>269.1142</MEAN_ANOMALY></meanElements><tleParameters><EPHEMERIS_TYPE>0</EPHEMERIS_TYPE><CLASSIFICATION_TYPE>U</CLASSIFICATION_TYPE><NORAD_CAT_ID>43923</NORAD_CAT_ID><ELEMENT_SET_NO>999</ELEMENT_SET_NO><REV_AT_EPOCH>33279</REV_AT_EPOCH><BSTAR>.643E-3</BSTAR><MEAN_MOTION_DOT>.4079E-4</MEAN_MOTION_DOT><MEAN_MOTION_DDOT>0</MEAN_MOTION_DDOT></tleParameters></data></segment></body></omm>
<omm id="CCSDS_OMM_VERS" version="2.0">
<header><CREATION_DATE/><ORIGINATOR/></header><body><segment><metadata><OBJECT_NAME>IRIDIUM 168</OBJECT_NAME><OBJECT_ID>2019-002C</OBJECT_ID><CENTER_NAME>EARTH</CENTER_NAME><REF_FRAME>TEME</REF_FRAME><TIME_SYSTEM>UTC</TIME_SYSTEM><MEAN_ELEMENT_THEORY>SGP4</MEAN_ELEMENT_THEORY></metadata><data><meanElements><EPOCH>2025-03-22T12:25:54.679008</EPOCH><MEAN_MOTION>14.34215604</MEAN_MOTION><ECCENTRICITY>.0002166</ECCENTRICITY><INCLINATION>86.4052</INCLINATION><RA_OF_ASC_NODE>182.4187</RA_OF_ASC_NODE><ARG_OF_PERICENTER>96.9292</ARG_OF_PERICENTER><MEAN_ANOMALY>263.2151</MEAN_ANOMALY></meanElements><tleParameters><EPHEMERIS_TYPE>0</EPHEMERIS_TYPE><CLASSIFICATION_TYPE>U</CLASSIFICATION_TYPE><NORAD_CAT_ID>43924</NORAD_CAT_ID><ELEMENT_SET_NO>999</ELEMENT_SET_NO><REV_AT_EPOCH>32423</REV_AT_EPOCH><BSTAR>.40413E-3</BSTAR><MEAN_MOTION_DOT>.1152E-4</MEAN_MOTION_DOT><MEAN_MOTION_DDOT>0</MEAN_MOTION_DDOT></tleParameters></data></segment></body></omm>
<omm id="CCSDS_OMM_VERS" version="2.0">
<header><CREATION_DATE/><ORIGINATOR/></header><body><segment><metadata><OBJECT_NAME>IRIDIUM 173</OBJECT_NAME><OBJECT_ID>2019-002D</OBJECT_ID><CENTER_NAME>EARTH</CENTER_NAME><REF_FRAME>TEME</REF_FRAME><TIME_SYSTEM>UTC</TIME_SYSTEM><MEAN_ELEMENT_THEORY>SGP4</MEAN_ELEMENT_THEORY></metadata><data><meanElements><EPOCH>2025-03-21T19:22:58.571904</EPOCH><MEAN_MOTION>14.34208696</MEAN_MOTION><ECCENTRICITY>.0002631</ECCENTRICITY><INCLINATION>86.4057</INCLINATION><RA_OF_ASC_NODE>182.6217</RA_OF_ASC_NODE><ARG_OF_PERICENTER>98.6342</ARG_OF_PERICENTER><MEAN_ANOMALY>261.5152</MEAN_ANOMALY></meanElements><tleParameters><EPHEMERIS_TYPE>0</EPHEMERIS_TYPE><CLASSIFICATION_TYPE>U</CLASSIFICATION_TYPE><NORAD_CAT_ID>43925</NORAD_CAT_ID><ELEMENT_SET_NO>999</ELEMENT_SET_NO><REV_AT_EPOCH>32411</REV_AT_EPOCH><BSTAR>.14016E-3</BSTAR><MEAN_MOTION_DOT>.412E-5</MEAN_MOTION_DOT><MEAN_MOTION_DDOT>0</MEAN_MOTION_DDOT></tleParameters></data></segment></body></omm>
<omm id="CCSDS_OMM_VERS" version="2.0">
<header><CREATION_DATE/><ORIGINATOR/></header><body><segment><metadata><OBJECT_NAME>IRIDIUM 169</OBJECT_NAME><OBJECT_ID>2019-002E</OBJECT_ID><CENTER_NAME>EARTH</CENTER_NAME><REF_FRAME>TEME</REF_FRAME><TIME_SYSTEM>UTC</TIME_SYSTEM><MEAN_ELEMENT_THEORY>SGP4</MEAN_ELEMENT_THEORY></metadata><data><meanElements><EPOCH>2025-03-21T20:40:48.711360</EPOCH><MEAN_MOTION>14.38637959</MEAN_MOTION><ECCENTRICITY>.0002893</ECCENTRICITY><INCLINATION>86.4264</INCLINATION><RA_OF_ASC_NODE>214.1680</RA_OF_ASC_NODE><ARG_OF_PERICENTER>61.6116</ARG_OF_PERICENTER><MEAN_ANOMALY>298.5374</MEAN_ANOMALY></meanElements><tleParameters><EPHEMERIS_TYPE>0</EPHEMERIS_TYPE><CLASSIFICATION_TYPE>U</CLASSIFICATION_TYPE><NORAD_CAT_ID>43926</NORAD_CAT_ID><ELEMENT_SET_NO>999</ELEMENT_SET_NO><REV_AT_EPOCH>32519</REV_AT_EPOCH><BSTAR>.40405E-3</BSTAR><MEAN_MOTION_DOT>.1257E-4</MEAN_MOTION_DOT><MEAN_MOTION_DDOT>0</MEAN_MOTION_DDOT></tleParameters></data></segment></body></omm>
<omm id="CCSDS_OMM_VERS" version="2.0">
<header><CREATION_DATE/><ORIGINATOR/></header><body><segment><metadata><OBJECT_NAME>IRIDIUM 172</OBJECT_NAME><OBJECT_ID>2019-002F</OBJECT_ID><CENTER_NAME>EARTH</CENTER_NAME><REF_FRAME>TEME</REF_FRAME><TIME_SYSTEM>UTC</TIME_SYSTEM><MEAN_ELEMENT_THEORY>SGP4</MEAN_ELEMENT_THEORY></metadata><data><meanElements><EPOCH>2025-03-22T13:39:00.443232</EPOCH><MEAN_MOTION>14.34219608</MEAN_MOTION><ECCENTRICITY>.0002482</ECCENTRICITY><INCLINATION>86.4047</INCLINATION><RA_OF_ASC_NODE>182.3118</RA_OF_ASC_NODE><ARG_OF_PERICENTER>98.9055</ARG_OF_PERICENTER><MEAN_ANOMALY>261.2421</MEAN_ANOMALY></meanElements><tleParameters><EPHEMERIS_TYPE>0</EPHEMERIS_TYPE><CLASSIFICATION_TYPE>U</CLASSIFICATION_TYPE><NORAD_CAT_ID>43927</NORAD_CAT_ID><ELEMENT_SET_NO>999</ELEMENT_SET_NO><REV_AT_EPOCH>32423</REV_AT_EPOCH><BSTAR>.12508E-3</BSTAR><MEAN_MOTION_DOT>.37E-5</MEAN_MOTION_DOT><MEAN_MOTION_DDOT>0</MEAN_MOTION_DDOT></tleParameters></data></segment></body></omm>
<omm id="CCSDS_OMM_VERS" version="2.0">
<header><CREATION_DATE/><ORIGINATOR/></header><body><segment><metadata><OBJECT_NAME>IRIDIUM 175</OBJECT_NAME><OBJECT_ID>2019-002G</OBJECT_ID><CENTER_NAME>EARTH</CENTER_NAME><REF_FRAME>TEME</REF_FRAME><TIME_SYSTEM>UTC</TIME_SYSTEM><MEAN_ELEMENT_THEORY>SGP4</MEAN_ELEMENT_THEORY></metadata><data><meanElements><EPOCH>2025-03-21T16:37:35.389344</EPOCH><MEAN_MOTION>14.72243638</MEAN_MOTION><ECCENTRICITY>.0001608</ECCENTRICITY><INCLINATION>86.1517</INCLINATION><RA_OF_ASC_NODE>140.2243</RA_OF_ASC_NODE><ARG_OF_PERICENTER>74.5990</ARG_OF_PERICENTER><MEAN_ANOMALY>285.5404</MEAN_ANOMALY></meanElements><tleParameters><EPHEMERIS_TYPE>0</EPHEMERIS_TYPE><CLASSIFICATION_TYPE>U</CLASSIFICATION_TYPE><NORAD_CAT_ID>43928</NORAD_CAT_ID><ELEMENT_SET_NO>999</ELEMENT_SET_NO><REV_AT_EPOCH>33266</REV_AT_EPOCH><BSTAR>.38448E-3</BSTAR><MEAN_MOTION_DOT>.2449E-4</MEAN_MOTION_DOT><MEAN_MOTION_DDOT>0</MEAN_MOTION_DDOT></tleParameters></data></segment></body></omm>

</ndm>
