IRIDIUM 159             
1 43578U 18061K   25081.52484354  .00000296  00000+0  98785-4 0  9991
2 43578  86.3933 245.3959 0002232  97.2398 262.9052 14.34216635348641
IRIDIUM 180             
1 43922U 19002A   25081.52433833  .00001400  00000+0  49291-3 0  9991
2 43922  86.4047 182.3517 0002216  94.3276 265.8173 14.34216550324293
IRIDIUM 176             
1 43923U 19002B   25081.51358709  .00004079  00000+0  64300-3 0  9992
2 43923  86.6166 182.3565 0002932  91.0411 269.1142 14.72234212332795
IRIDIUM 168             
1 43924U 19002C   25081.51799397  .00001152  00000+0  40413-3 0  9993
2 43924  86.4052 182.4187 0002166  96.9292 263.2151 14.34215604324236
IRIDIUM 173             
1 43925U 19002D   25080.80762236  .00000412  00000+0  14016-3 0  9995
2 43925  86.4057 182.6217 0002631  98.6342 261.5152 14.34208696324112
IRIDIUM 169             
1 43926U 19002E   25080.86167490  .00001257  00000+0  40405-3 0  9992
2 43926  86.4264 214.1680 0002893  61.6116 298.5374 14.38637959325194
IRIDIUM 172             
1 43927U 19002F   25081.56875513  .00000370  00000+0  12508-3 0  9991
2 43927  86.4047 182.3118 0002482  98.9055 261.2421 14.34219608324232
IRIDIUM 175             
1 43928U 19002G   25080.69277071  .00002449  00000+0  38448-3 0  9990
2 43928  86.1517 140.2243 0001608  74.5990 285.5404 14.72243638332669
